CCSDS_OMM_VERS = 2.0
CREATION_DATE  = 
ORIGINATOR     = 

OBJECT_NAME    = STARLINK-36550
OBJECT_ID      = 2026-012C
CENTER_NAME    = EARTH
REF_FRAME      = TEME
TIME_SYSTEM    = UTC
MEAN_ELEMENT_THEORY = SGP/SGP4

EPOCH          = 2026-01-30T12:00:02.998944
MEAN_MOTION    = 15.92510467
ECCENTRICITY   = .000137
INCLINATION    = 42.9958
RA_OF_ASC_NODE = 175.7060
ARG_OF_PERICENTER = 279.2775
MEAN_ANOMALY   = 205.4827

EPHEMERIS_TYPE = 0
CLASSIFICATION_TYPE = U
NORAD_CAT_ID   = 67495
ELEMENT_SET_NO = 999
REV_AT_EPOCH   = 292
BSTAR          = -.50955E-2
MEAN_MOTION_DOT = -.1790293E-1
MEAN_MOTION_DDOT = .88352E-3

CCSDS_OMM_VERS = 2.0
CREATION_DATE  = 
ORIGINATOR     = 

OBJECT_NAME    = STARLINK-36534
OBJECT_ID      = 2026-012D
CENTER_NAME    = EARTH
REF_FRAME      = TEME
TIME_SYSTEM    = UTC
MEAN_ELEMENT_THEORY = SGP/SGP4

EPOCH          = 2026-01-30T12:00:02.998944
MEAN_MOTION    = 15.92691837
ECCENTRICITY   = .0001275
INCLINATION    = 42.9962
RA_OF_ASC_NODE = 175.6907
ARG_OF_PERICENTER = 276.9188
MEAN_ANOMALY   = 213.8728

EPHEMERIS_TYPE = 0
CLASSIFICATION_TYPE = U
NORAD_CAT_ID   = 67496
ELEMENT_SET_NO = 999
REV_AT_EPOCH   = 286
BSTAR          = -.4995E-2
MEAN_MOTION_DOT = -.1771937E-1
MEAN_MOTION_DDOT = .86838E-3

CCSDS_OMM_VERS = 2.0
CREATION_DATE  = 
ORIGINATOR     = 

OBJECT_NAME    = STARLINK-36555
OBJECT_ID      = 2026-012E
CENTER_NAME    = EARTH
REF_FRAME      = TEME
TIME_SYSTEM    = UTC
MEAN_ELEMENT_THEORY = SGP/SGP4

EPOCH          = 2026-01-30T12:00:02.998944
MEAN_MOTION    = 15.92593604
ECCENTRICITY   = .0001493
INCLINATION    = 42.9960
RA_OF_ASC_NODE = 175.6992
ARG_OF_PERICENTER = 279.3205
MEAN_ANOMALY   = 208.1334

EPHEMERIS_TYPE = 0
CLASSIFICATION_TYPE = U
NORAD_CAT_ID   = 67497
ELEMENT_SET_NO = 999
REV_AT_EPOCH   = 292
BSTAR          = -.5079E-2
MEAN_MOTION_DOT = -.179229E-1
MEAN_MOTION_DDOT = .88608E-3

CCSDS_OMM_VERS = 2.0
CREATION_DATE  = 
ORIGINATOR     = 

OBJECT_NAME    = STARLINK-36081
OBJECT_ID      = 2026-012F
CENTER_NAME    = EARTH
REF_FRAME      = TEME
TIME_SYSTEM    = UTC
MEAN_ELEMENT_THEORY = SGP/SGP4

EPOCH          = 2026-01-30T12:00:02.998944
MEAN_MOTION    = 15.92829565
ECCENTRICITY   = .0001356
INCLINATION    = 42.9962
RA_OF_ASC_NODE = 175.6802
ARG_OF_PERICENTER = 280.0125
MEAN_ANOMALY   = 214.9320

EPHEMERIS_TYPE = 0
CLASSIFICATION_TYPE = U
NORAD_CAT_ID   = 67498
ELEMENT_SET_NO = 999
REV_AT_EPOCH   = 286
BSTAR          = -.49842E-2
MEAN_MOTION_DOT = -.1780845E-1
MEAN_MOTION_DDOT = .87767E-3

CCSDS_OMM_VERS = 2.0
CREATION_DATE  = 
ORIGINATOR     = 

OBJECT_NAME    = STARLINK-36558
OBJECT_ID      = 2026-012G
CENTER_NAME    = EARTH
REF_FRAME      = TEME
TIME_SYSTEM    = UTC
MEAN_ELEMENT_THEORY = SGP/SGP4

EPOCH          = 2026-01-30T12:00:02.998944
MEAN_MOTION    = 15.92892622
ECCENTRICITY   = .0001393
INCLINATION    = 42.9960
RA_OF_ASC_NODE = 175.6750
ARG_OF_PERICENTER = 276.6335
MEAN_ANOMALY   = 220.4542

EPHEMERIS_TYPE = 0
CLASSIFICATION_TYPE = U
NORAD_CAT_ID   = 67499
ELEMENT_SET_NO = 999
REV_AT_EPOCH   = 292
BSTAR          = -.49548E-2
MEAN_MOTION_DOT = -.1776301E-1
MEAN_MOTION_DDOT = .87408E-3

CCSDS_OMM_VERS = 2.0
CREATION_DATE  = 
ORIGINATOR     = 

OBJECT_NAME    = STARLINK-36557
OBJECT_ID      = 2026-012H
CENTER_NAME    = EARTH
REF_FRAME      = TEME
TIME_SYSTEM    = UTC
MEAN_ELEMENT_THEORY = SGP/SGP4

EPOCH          = 2026-01-30T12:00:02.998944
MEAN_MOTION    = 15.92998253
ECCENTRICITY   = .0001331
INCLINATION    = 42.9961
RA_OF_ASC_NODE = 175.6653
ARG_OF_PERICENTER = 279.7247
MEAN_ANOMALY   = 220.8306

EPHEMERIS_TYPE = 0
CLASSIFICATION_TYPE = U
NORAD_CAT_ID   = 67500
ELEMENT_SET_NO = 999
REV_AT_EPOCH   = 292
BSTAR          = -.48914E-2
MEAN_MOTION_DOT = -.1763486E-1
MEAN_MOTION_DDOT = .86334E-3

CCSDS_OMM_VERS = 2.0
CREATION_DATE  = 
ORIGINATOR     = 

OBJECT_NAME    = STARLINK-36433
OBJECT_ID      = 2026-012J
CENTER_NAME    = EARTH
REF_FRAME      = TEME
TIME_SYSTEM    = UTC
MEAN_ELEMENT_THEORY = SGP/SGP4

EPOCH          = 2026-01-30T12:00:02.998944
MEAN_MOTION    = 15.93101389
ECCENTRICITY   = .0001351
INCLINATION    = 42.9961
RA_OF_ASC_NODE = 175.6583
ARG_OF_PERICENTER = 278.1608
MEAN_ANOMALY   = 225.4146

EPHEMERIS_TYPE = 0
CLASSIFICATION_TYPE = U
NORAD_CAT_ID   = 67501
ELEMENT_SET_NO = 999
REV_AT_EPOCH   = 292
BSTAR          = -.48944E-2
MEAN_MOTION_DOT = -.1774021E-1
MEAN_MOTION_DDOT = .87381E-3

CCSDS_OMM_VERS = 2.0
CREATION_DATE  = 
ORIGINATOR     = 

OBJECT_NAME    = STARLINK-36554
OBJECT_ID      = 2026-012K
CENTER_NAME    = EARTH
REF_FRAME      = TEME
TIME_SYSTEM    = UTC
MEAN_ELEMENT_THEORY = SGP/SGP4

EPOCH          = 2026-01-28T18:49:29.593920
MEAN_MOTION    = 16.00907404
ECCENTRICITY   = .00123264
INCLINATION    = 42.9964
RA_OF_ASC_NODE = 186.3737
ARG_OF_PERICENTER = 300.6114
MEAN_ANOMALY   = 59.3549

EPHEMERIS_TYPE = 0
CLASSIFICATION_TYPE = U
NORAD_CAT_ID   = 67502
ELEMENT_SET_NO = 999
REV_AT_EPOCH   = 158
BSTAR          = .15774164E-2
MEAN_MOTION_DOT = .888078E-2
MEAN_MOTION_DDOT = .38383813E-3

CCSDS_OMM_VERS = 2.0
CREATION_DATE  = 
ORIGINATOR     = 

OBJECT_NAME    = STARLINK-36552
OBJECT_ID      = 2026-012L
CENTER_NAME    = EARTH
REF_FRAME      = TEME
TIME_SYSTEM    = UTC
MEAN_ELEMENT_THEORY = SGP/SGP4

EPOCH          = 2026-01-30T12:00:02.998944
MEAN_MOTION    = 15.93298113
ECCENTRICITY   = .0001266
INCLINATION    = 42.9963
RA_OF_ASC_NODE = 175.6421
ARG_OF_PERICENTER = 281.4148
MEAN_ANOMALY   = 228.4860

EPHEMERIS_TYPE = 0
CLASSIFICATION_TYPE = U
NORAD_CAT_ID   = 67503
ELEMENT_SET_NO = 999
REV_AT_EPOCH   = 292
BSTAR          = -.47928E-2
MEAN_MOTION_DOT = -.175555E-1
MEAN_MOTION_DDOT = .85872E-3

CCSDS_OMM_VERS = 2.0
CREATION_DATE  = 
ORIGINATOR     = 

OBJECT_NAME    = STARLINK-36512
OBJECT_ID      = 2026-012M
CENTER_NAME    = EARTH
REF_FRAME      = TEME
TIME_SYSTEM    = UTC
MEAN_ELEMENT_THEORY = SGP/SGP4

EPOCH          = 2026-01-30T12:00:02.998944
MEAN_MOTION    = 15.93427950
ECCENTRICITY   = .0001344
INCLINATION    = 42.9961
RA_OF_ASC_NODE = 175.6325
ARG_OF_PERICENTER = 277.8124
MEAN_ANOMALY   = 235.8662

EPHEMERIS_TYPE = 0
CLASSIFICATION_TYPE = U
NORAD_CAT_ID   = 67504
ELEMENT_SET_NO = 999
REV_AT_EPOCH   = 292
BSTAR          = -.47821E-2
MEAN_MOTION_DOT = -.1763632E-1
MEAN_MOTION_DDOT = .86717E-3

CCSDS_OMM_VERS = 2.0
CREATION_DATE  = 
ORIGINATOR     = 

OBJECT_NAME    = STARLINK-36545
OBJECT_ID      = 2026-012N
CENTER_NAME    = EARTH
REF_FRAME      = TEME
TIME_SYSTEM    = UTC
MEAN_ELEMENT_THEORY = SGP/SGP4

EPOCH          = 2026-01-30T12:00:02.998944
MEAN_MOTION    = 15.93491147
ECCENTRICITY   = .0001126
INCLINATION    = 42.9961
RA_OF_ASC_NODE = 175.6267
ARG_OF_PERICENTER = 277.9345
MEAN_ANOMALY   = 237.9706

EPHEMERIS_TYPE = 0
CLASSIFICATION_TYPE = U
NORAD_CAT_ID   = 67505
ELEMENT_SET_NO = 999
REV_AT_EPOCH   = 292
BSTAR          = -.47505E-2
MEAN_MOTION_DOT = -.1757871E-1
MEAN_MOTION_DDOT = .86248E-3

CCSDS_OMM_VERS = 2.0
CREATION_DATE  = 
ORIGINATOR     = 

OBJECT_NAME    = STARLINK-36553
OBJECT_ID      = 2026-012P
CENTER_NAME    = EARTH
REF_FRAME      = TEME
TIME_SYSTEM    = UTC
MEAN_ELEMENT_THEORY = SGP/SGP4

EPOCH          = 2026-01-30T12:00:02.998944
MEAN_MOTION    = 15.93588125
ECCENTRICITY   = .0001229
INCLINATION    = 42.9964
RA_OF_ASC_NODE = 175.6196
ARG_OF_PERICENTER = 277.5630
MEAN_ANOMALY   = 241.4073

EPHEMERIS_TYPE = 0
CLASSIFICATION_TYPE = U
NORAD_CAT_ID   = 67506
ELEMENT_SET_NO = 999
REV_AT_EPOCH   = 292
BSTAR          = -.47003E-2
MEAN_MOTION_DOT = -.1748377E-1
MEAN_MOTION_DDOT = .85471E-3

