STARLINK-36550          
1 67495U 26012C   26030.50003471 -.01790293  88352-3 -50955-2 0  9991
2 67495  42.9958 175.7060 0001370 279.2775 205.4827 15.92510467  2927
STARLINK-36534          
1 67496U 26012D   26030.50003471 -.01771937  86838-3 -49950-2 0  9996
2 67496  42.9962 175.6907 0001275 276.9188 213.8728 15.92691837  2865
STARLINK-36555          
1 67497U 26012E   26030.50003471 -.01792290  88608-3 -50790-2 0  9993
2 67497  42.9960 175.6992 0001493 279.3205 208.1334 15.92593604  2927
STARLINK-36081          
1 67498U 26012F   26030.50003471 -.01780845  87767-3 -49842-2 0  9998
2 67498  42.9962 175.6802 0001356 280.0125 214.9320 15.92829565  2869
STARLINK-36558          
1 67499U 26012G   26030.50003471 -.01776301  87408-3 -49548-2 0  9996
2 67499  42.9960 175.6750 0001393 276.6335 220.4542 15.92892622  2924
STARLINK-36557          
1 67500U 26012H   26030.50003471 -.01763486  86334-3 -48914-2 0  9992
2 67500  42.9961 175.6653 0001331 279.7247 220.8306 15.92998253  2927
STARLINK-36433          
1 67501U 26012J   26030.50003471 -.01774021  87381-3 -48944-2 0  9996
2 67501  42.9961 175.6583 0001351 278.1608 225.4146 15.93101389  2926
STARLINK-36554          
1 67502U 26012K   26028.78437030  .00888078  38384-3  15774-2 0  9995
2 67502  42.9964 186.3737 0012326 300.6114  59.3549 16.00907404  1580
STARLINK-36552          
1 67503U 26012L   26030.50003471 -.01755550  85872-3 -47928-2 0  9998
2 67503  42.9963 175.6421 0001266 281.4148 228.4860 15.93298113  2920
STARLINK-36512          
1 67504U 26012M   26030.50003471 -.01763632  86717-3 -47821-2 0  9990
2 67504  42.9961 175.6325 0001344 277.8124 235.8662 15.93427950  2927
STARLINK-36545          
1 67505U 26012N   26030.50003471 -.01757871  86248-3 -47505-2 0  9997
2 67505  42.9961 175.6267 0001126 277.9345 237.9706 15.93491147  2928
STARLINK-36553          
1 67506U 26012P   26030.50003471 -.01748377  85471-3 -47003-2 0  9999
2 67506  42.9964 175.6196 0001229 277.5630 241.4073 15.93588125  2920
